{
  "type": "FeatureCollection",
  "features": [
    {
      "type": "Feature",
      "properties": {
        "norad_id": 33835,
        "name": "COSMOS 2251 DEB",
        "group": "cosmos-2251-debris",
        "lat": -68.66866317759063,
        "lon": -60.26579044080522,
        "alt_km": 718.5055460603344,
        "timestamp": "2025-12-27T14:26:30.914150+00:00",
        "meta_object_name": "COSMOS 2251 DEB",
        "meta_object_id": "1993-036CC",
        "meta_epoch": "2025-12-27T05:12:50.334336",
        "meta_mean_motion": 14.62386909,
        "meta_eccentricity": 0.00536004,
        "meta_inclination": 74.0573,
        "meta_ra_of_asc_node": 73.4159,
        "meta_arg_of_pericenter": 122.6066,
        "meta_mean_anomaly": 269.1784,
        "meta_ephemeris_type": 0,
        "meta_classification_type": "U",
        "meta_norad_cat_id": 33835,
        "meta_element_set_no": 999,
        "meta_rev_at_epoch": 89001,
        "meta_bstar": 0.00093973897,
        "meta_mean_motion_dot": 4.824e-05,
        "meta_mean_motion_ddot": 0,
        "tle_line1": "1 33835U 93036CC  25361.21724924  .00004824  00000+0  93974-3 0  9993",
        "tle_line2": "2 33835  74.0573  73.4159 0053600 122.6066 269.1784 14.62386909890019"
      },
      "geometry": {
        "type": "Point",
        "coordinates": [
          -60.26579044080522,
          -68.66866317759063
        ]
      }
    },
    {
      "type": "Feature",
      "properties": {
        "norad_id": 33836,
        "name": "COSMOS 2251 DEB",
        "group": "cosmos-2251-debris",
        "lat": 46.84637538155192,
        "lon": 31.793499645579963,
        "alt_km": 615.6323928868842,
        "timestamp": "2025-12-27T14:26:30.914161+00:00",
        "meta_object_name": "COSMOS 2251 DEB",
        "meta_object_id": "1993-036CD",
        "meta_epoch": "2025-12-27T01:23:24.319104",
        "meta_mean_motion": 14.79859209,
        "meta_eccentricity": 0.00229504,
        "meta_inclination": 73.9962,
        "meta_ra_of_asc_node": 230.6928,
        "meta_arg_of_pericenter": 78.4717,
        "meta_mean_anomaly": 35.841,
        "meta_ephemeris_type": 0,
        "meta_classification_type": "U",
        "meta_norad_cat_id": 33836,
        "meta_element_set_no": 999,
        "meta_rev_at_epoch": 64300,
        "meta_bstar": 0.0012759172,
        "meta_mean_motion_dot": 9.643e-05,
        "meta_mean_motion_ddot": 0,
        "tle_line1": "1 33836U 93036CD  25361.05792036  .00009643  00000+0  12759-2 0  9990",
        "tle_line2": "2 33836  73.9962 230.6928 0022950  78.4717  35.8410 14.79859209643001"
      },
      "geometry": {
        "type": "Point",
        "coordinates": [
          31.793499645579963,
          46.84637538155192
        ]
      }
    },
    {
      "type": "Feature",
      "properties": {
        "norad_id": 33837,
        "name": "COSMOS 2251 DEB",
        "group": "cosmos-2251-debris",
        "lat": -1.9498328892948213,
        "lon": 27.057305797405338,
        "alt_km": 735.239109583441,
        "timestamp": "2025-12-27T14:26:30.914172+00:00",
        "meta_object_name": "COSMOS 2251 DEB",
        "meta_object_id": "1993-036CE",
        "meta_epoch": "2025-12-27T02:51:58.260384",
        "meta_mean_motion": 14.5073176,
        "meta_eccentricity": 0.00358517,
        "meta_inclination": 74.0121,
        "meta_ra_of_asc_node": 28.5243,
        "meta_arg_of_pericenter": 247.97,
        "meta_mean_anomaly": 111.7651,
        "meta_ephemeris_type": 0,
        "meta_classification_type": "U",
        "meta_norad_cat_id": 33837,
        "meta_element_set_no": 999,
        "meta_rev_at_epoch": 89004,
        "meta_bstar": 0.00029248396,
        "meta_mean_motion_dot": 1.131e-05,
        "meta_mean_motion_ddot": 0,
        "tle_line1": "1 33837U 93036CE  25361.11942431  .00001131  00000+0  29248-3 0  9990",
        "tle_line2": "2 33837  74.0121  28.5243 0035851 247.9700 111.7651 14.50731760890043"
      },
      "geometry": {
        "type": "Point",
        "coordinates": [
          27.057305797405338,
          -1.9498328892948213
        ]
      }
    },
    {
      "type": "Feature",
      "properties": {
        "norad_id": 33838,
        "name": "COSMOS 2251 DEB",
        "group": "cosmos-2251-debris",
        "lat": 67.98865912994513,
        "lon": -103.09587807958374,
        "alt_km": 738.010699888935,
        "timestamp": "2025-12-27T14:26:30.914181+00:00",
        "meta_object_name": "COSMOS 2251 DEB",
        "meta_object_id": "1993-036CF",
        "meta_epoch": "2025-12-27T03:10:14.210688",
        "meta_mean_motion": 14.4840926,
        "meta_eccentricity": 0.00274568,
        "meta_inclination": 74.0369,
        "meta_ra_of_asc_node": 122.8602,
        "meta_arg_of_pericenter": 242.819,
        "meta_mean_anomaly": 294.892,
        "meta_ephemeris_type": 0,
        "meta_classification_type": "U",
        "meta_norad_cat_id": 33838,
        "meta_element_set_no": 999,
        "meta_rev_at_epoch": 88777,
        "meta_bstar": 0.00052080061,
        "meta_mean_motion_dot": 1.933e-05,
        "meta_mean_motion_ddot": 0,
        "tle_line1": "1 33838U 93036CF  25361.13210892  .00001933  00000+0  52080-3 0  9992",
        "tle_line2": "2 33838  74.0369 122.8602 0027456 242.8190 294.8920 14.48409260887776"
      },
      "geometry": {
        "type": "Point",
        "coordinates": [
          -103.09587807958374,
          67.98865912994513
        ]
      }
    },
    {
      "type": "Feature",
      "properties": {
        "norad_id": 33839,
        "name": "COSMOS 2251 DEB",
        "group": "cosmos-2251-debris",
        "lat": 10.273540279136425,
        "lon": -5.052006557791812,
        "alt_km": 707.3657882185089,
        "timestamp": "2025-12-27T14:26:30.914192+00:00",
        "meta_object_name": "COSMOS 2251 DEB",
        "meta_object_id": "1993-036CG",
        "meta_epoch": "2025-12-26T23:38:09.432960",
        "meta_mean_motion": 14.64456579,
        "meta_eccentricity": 0.0085379,
        "meta_inclination": 74.0373,
        "meta_ra_of_asc_node": 179.107,
        "meta_arg_of_pericenter": 287.9543,
        "meta_mean_anomaly": 231.0499,
        "meta_ephemeris_type": 0,
        "meta_classification_type": "U",
        "meta_norad_cat_id": 33839,
        "meta_element_set_no": 999,
        "meta_rev_at_epoch": 89788,
        "meta_bstar": 0.00028306,
        "meta_mean_motion_dot": 1.546e-05,
        "meta_mean_motion_ddot": 0,
        "tle_line1": "1 33839U 93036CG  25360.98483140  .00001546  00000+0  28306-3 0  9997",
        "tle_line2": "2 33839  74.0373 179.1070 0085379 287.9543 231.0499 14.64456579897886"
      },
      "geometry": {
        "type": "Point",
        "coordinates": [
          -5.052006557791812,
          10.273540279136425
        ]
      }
    },
    {
      "type": "Feature",
      "properties": {
        "norad_id": 33841,
        "name": "COSMOS 2251 DEB",
        "group": "cosmos-2251-debris",
        "lat": -71.01074503841421,
        "lon": -165.60310886171047,
        "alt_km": 762.3311714008823,
        "timestamp": "2025-12-27T14:26:30.914202+00:00",
        "meta_object_name": "COSMOS 2251 DEB",
        "meta_object_id": "1993-036CJ",
        "meta_epoch": "2025-12-27T03:49:39.204192",
        "meta_mean_motion": 14.37880701,
        "meta_eccentricity": 0.00210905,
        "meta_inclination": 74.037,
        "meta_ra_of_asc_node": 251.4934,
        "meta_arg_of_pericenter": 329.2775,
        "meta_mean_anomaly": 182.9242,
        "meta_ephemeris_type": 0,
        "meta_classification_type": "U",
        "meta_norad_cat_id": 33841,
        "meta_element_set_no": 999,
        "meta_rev_at_epoch": 88321,
        "meta_bstar": 0.00023080293,
        "meta_mean_motion_dot": 6.72e-06,
        "meta_mean_motion_ddot": 0,
        "tle_line1": "1 33841U 93036CJ  25361.15948153  .00000672  00000+0  23080-3 0  9993",
        "tle_line2": "2 33841  74.0370 251.4934 0021090 329.2775 182.9242 14.37880701883216"
      },
      "geometry": {
        "type": "Point",
        "coordinates": [
          -165.60310886171047,
          -71.01074503841421
        ]
      }
    },
    {
      "type": "Feature",
      "properties": {
        "norad_id": 33842,
        "name": "COSMOS 2251 DEB",
        "group": "cosmos-2251-debris",
        "lat": 67.82705247507937,
        "lon": -123.29880798806731,
        "alt_km": 767.7140436909995,
        "timestamp": "2025-12-27T14:26:30.914212+00:00",
        "meta_object_name": "COSMOS 2251 DEB",
        "meta_object_id": "1993-036CK",
        "meta_epoch": "2025-12-26T23:07:12.101664",
        "meta_mean_motion": 14.42724489,
        "meta_eccentricity": 0.0047623,
        "meta_inclination": 74.0314,
        "meta_ra_of_asc_node": 193.25,
        "meta_arg_of_pericenter": 297.7777,
        "meta_mean_anomaly": 61.8554,
        "meta_ephemeris_type": 0,
        "meta_classification_type": "U",
        "meta_norad_cat_id": 33842,
        "meta_element_set_no": 999,
        "meta_rev_at_epoch": 88542,
        "meta_bstar": 0.0003135,
        "meta_mean_motion_dot": 1.031e-05,
        "meta_mean_motion_ddot": 0,
        "tle_line1": "1 33842U 93036CK  25360.96333451  .00001031  00000+0  31350-3 0  9990",
        "tle_line2": "2 33842  74.0314 193.2500 0047623 297.7777  61.8554 14.42724489885420"
      },
      "geometry": {
        "type": "Point",
        "coordinates": [
          -123.29880798806731,
          67.82705247507937
        ]
      }
    }
  ]
}